[
    {
       "OBJECT_NAME": "STARLINK-3116",
       "OBJECT_ID": "2021-082S",
       "EPOCH": "2022-03-13T14:00:01.000224",
       "MEAN_MOTION": 15.00492873,
       "ECCENTRICITY": 0.0003239,
       "INCLINATION": 69.9999,
       "RA_OF_ASC_NODE": 347.3156,
       "ARG_OF_PERICENTER": 276.1629,
       "MEAN_ANOMALY": 37.9519,
       "EPHEMERIS_TYPE": 0,
       "CLASSIFICATION_TYPE": "U",
       "NORAD_CAT_ID": 49146,
       "ELEMENT_SET_NO": 999,
       "REV_AT_EPOCH": 361,
       "BSTAR": -0.055811,
       "MEAN_MOTION_DOT": -0.00658933,
       "MEAN_MOTION_DDOT": 0
    },
    {
       "OBJECT_NAME": "STARLINK-3071",
       "OBJECT_ID": "2021-082T",
       "EPOCH": "2022-03-13T22:00:01.999584",
       "MEAN_MOTION": 15.69720805,
       "ECCENTRICITY": 0.0003429,
       "INCLINATION": 70.0004,
       "RA_OF_ASC_NODE": 338.6757,
       "ARG_OF_PERICENTER": 258.4171,
       "MEAN_ANOMALY": 153.8255,
       "EPHEMERIS_TYPE": 0,
       "CLASSIFICATION_TYPE": "U",
       "NORAD_CAT_ID": 49147,
       "ELEMENT_SET_NO": 999,
       "REV_AT_EPOCH": 2964,
       "BSTAR": -0.000075909,
       "MEAN_MOTION_DOT": -0.00009253,
       "MEAN_MOTION_DDOT": 0
    },
    {
       "OBJECT_NAME": "STARLINK-3048",
       "OBJECT_ID": "2021-082U",
       "EPOCH": "2022-03-13T14:00:01.000224",
       "MEAN_MOTION": 15.00888079,
       "ECCENTRICITY": 0.0003279,
       "INCLINATION": 70,
       "RA_OF_ASC_NODE": 347.318,
       "ARG_OF_PERICENTER": 277.0858,
       "MEAN_ANOMALY": 59.1517,
       "EPHEMERIS_TYPE": 0,
       "CLASSIFICATION_TYPE": "U",
       "NORAD_CAT_ID": 49148,
       "ELEMENT_SET_NO": 999,
       "REV_AT_EPOCH": 361,
       "BSTAR": -0.055252,
       "MEAN_MOTION_DOT": -0.00659142,
       "MEAN_MOTION_DDOT": 0
    },
    {
       "OBJECT_NAME": "STARLINK-3053",
       "OBJECT_ID": "2021-082V",
       "EPOCH": "2022-03-13T14:00:01.000224",
       "MEAN_MOTION": 14.98313192,
       "ECCENTRICITY": 0.0002966,
       "INCLINATION": 70.002,
       "RA_OF_ASC_NODE": 8.3287,
       "ARG_OF_PERICENTER": 288.3203,
       "MEAN_ANOMALY": 10.3072,
       "EPHEMERIS_TYPE": 0,
       "CLASSIFICATION_TYPE": "U",
       "NORAD_CAT_ID": 49149,
       "ELEMENT_SET_NO": 999,
       "REV_AT_EPOCH": 357,
       "BSTAR": 0.0019846,
       "MEAN_MOTION_DOT": 0.00023657,
       "MEAN_MOTION_DDOT": 0
    },
    {
       "OBJECT_NAME": "STARLINK-3104",
       "OBJECT_ID": "2021-082W",
       "EPOCH": "2022-03-13T14:00:01.000224",
       "MEAN_MOTION": 14.98298415,
       "ECCENTRICITY": 0.000335,
       "INCLINATION": 70.0013,
       "RA_OF_ASC_NODE": 8.326,
       "ARG_OF_PERICENTER": 290.106,
       "MEAN_ANOMALY": 34.2926,
       "EPHEMERIS_TYPE": 0,
       "CLASSIFICATION_TYPE": "U",
       "NORAD_CAT_ID": 49150,
       "ELEMENT_SET_NO": 999,
       "REV_AT_EPOCH": 357,
       "BSTAR": 0.0022987,
       "MEAN_MOTION_DOT": 0.0002742,
       "MEAN_MOTION_DDOT": 0
    },
    {
       "OBJECT_NAME": "STARLINK-3102",
       "OBJECT_ID": "2021-082X",
       "EPOCH": "2022-03-13T14:00:01.000224",
       "MEAN_MOTION": 15.69682419,
       "ECCENTRICITY": 0.0003416,
       "INCLINATION": 70.0008,
       "RA_OF_ASC_NODE": 339.5928,
       "ARG_OF_PERICENTER": 256.2153,
       "MEAN_ANOMALY": 85.7409,
       "EPHEMERIS_TYPE": 0,
       "CLASSIFICATION_TYPE": "U",
       "NORAD_CAT_ID": 49151,
       "ELEMENT_SET_NO": 999,
       "REV_AT_EPOCH": 369,
       "BSTAR": 0.00083337,
       "MEAN_MOTION_DOT": 0.00100192,
       "MEAN_MOTION_DDOT": 0
    },
    {
       "OBJECT_NAME": "STARLINK-3081",
       "OBJECT_ID": "2021-082Y",
       "EPOCH": "2022-03-13T14:00:01.000224",
       "MEAN_MOTION": 15.69674032,
       "ECCENTRICITY": 0.0003745,
       "INCLINATION": 69.9994,
       "RA_OF_ASC_NODE": 339.5842,
       "ARG_OF_PERICENTER": 256.2574,
       "MEAN_ANOMALY": 94.2004,
       "EPHEMERIS_TYPE": 0,
       "CLASSIFICATION_TYPE": "U",
       "NORAD_CAT_ID": 49152,
       "ELEMENT_SET_NO": 999,
       "REV_AT_EPOCH": 2955,
       "BSTAR": 0.00023987,
       "MEAN_MOTION_DOT": 0.00028433,
       "MEAN_MOTION_DDOT": 0
    },
    {
       "OBJECT_NAME": "STARLINK-3072",
       "OBJECT_ID": "2021-082Z",
       "EPOCH": "2022-03-13T14:00:01.000224",
       "MEAN_MOTION": 15.69673092,
       "ECCENTRICITY": 0.0003533,
       "INCLINATION": 69.9996,
       "RA_OF_ASC_NODE": 339.5867,
       "ARG_OF_PERICENTER": 254.4597,
       "MEAN_ANOMALY": 91.7355,
       "EPHEMERIS_TYPE": 0,
       "CLASSIFICATION_TYPE": "U",
       "NORAD_CAT_ID": 49153,
       "ELEMENT_SET_NO": 999,
       "REV_AT_EPOCH": 369,
       "BSTAR": 0.0009926,
       "MEAN_MOTION_DOT": 0.0011961,
       "MEAN_MOTION_DDOT": 0
    },
    {
       "OBJECT_NAME": "STARLINK-3068",
       "OBJECT_ID": "2021-082AA",
       "EPOCH": "2022-03-13T20:00:01.000224",
       "MEAN_MOTION": 15.00985474,
       "ECCENTRICITY": 0.0003363,
       "INCLINATION": 70.0002,
       "RA_OF_ASC_NODE": 346.6882,
       "ARG_OF_PERICENTER": 287.0665,
       "MEAN_ANOMALY": 340.8196,
       "EPHEMERIS_TYPE": 0,
       "CLASSIFICATION_TYPE": "U",
       "NORAD_CAT_ID": 49154,
       "ELEMENT_SET_NO": 999,
       "REV_AT_EPOCH": 2935,
       "BSTAR": -0.05556,
       "MEAN_MOTION_DOT": -0.00664187,
       "MEAN_MOTION_DDOT": 0
    },
    {
       "OBJECT_NAME": "STARLINK-3060",
       "OBJECT_ID": "2021-082AB",
       "EPOCH": "2022-03-13T14:00:01.000224",
       "MEAN_MOTION": 15.69692632,
       "ECCENTRICITY": 0.0003439,
       "INCLINATION": 70.0006,
       "RA_OF_ASC_NODE": 339.5834,
       "ARG_OF_PERICENTER": 256.9136,
       "MEAN_ANOMALY": 91.3994,
       "EPHEMERIS_TYPE": 0,
       "CLASSIFICATION_TYPE": "U",
       "NORAD_CAT_ID": 49155,
       "ELEMENT_SET_NO": 999,
       "REV_AT_EPOCH": 2949,
       "BSTAR": -0.00017443,
       "MEAN_MOTION_DOT": -0.00020935,
       "MEAN_MOTION_DDOT": 0
    },
    {
       "OBJECT_NAME": "STARLINK-3085",
       "OBJECT_ID": "2021-082AC",
       "EPOCH": "2022-03-13T20:00:01.000224",
       "MEAN_MOTION": 15.69571642,
       "ECCENTRICITY": 0.0003287,
       "INCLINATION": 70.0009,
       "RA_OF_ASC_NODE": 338.8815,
       "ARG_OF_PERICENTER": 256.1929,
       "MEAN_ANOMALY": 75.1875,
       "EPHEMERIS_TYPE": 0,
       "CLASSIFICATION_TYPE": "U",
       "NORAD_CAT_ID": 49156,
       "ELEMENT_SET_NO": 999,
       "REV_AT_EPOCH": 2953,
       "BSTAR": -0.0005363,
       "MEAN_MOTION_DOT": -0.00063287,
       "MEAN_MOTION_DDOT": 0
    },
    {
       "OBJECT_NAME": "STARLINK-3051",
       "OBJECT_ID": "2021-082AD",
       "EPOCH": "2022-03-13T22:00:01.999584",
       "MEAN_MOTION": 14.99025071,
       "ECCENTRICITY": 0.0003435,
       "INCLINATION": 70.0001,
       "RA_OF_ASC_NODE": 346.457,
       "ARG_OF_PERICENTER": 285.3473,
       "MEAN_ANOMALY": 114.2625,
       "EPHEMERIS_TYPE": 0,
       "CLASSIFICATION_TYPE": "U",
       "NORAD_CAT_ID": 49157,
       "ELEMENT_SET_NO": 999,
       "REV_AT_EPOCH": 2938,
       "BSTAR": -0.05853,
       "MEAN_MOTION_DOT": -0.00664612,
       "MEAN_MOTION_DDOT": 0
    },
    {
       "OBJECT_NAME": "STARLINK-3083",
       "OBJECT_ID": "2021-082AE",
       "EPOCH": "2022-03-13T14:00:01.000224",
       "MEAN_MOTION": 14.99996328,
       "ECCENTRICITY": 0.0003293,
       "INCLINATION": 70,
       "RA_OF_ASC_NODE": 347.3012,
       "ARG_OF_PERICENTER": 277.6115,
       "MEAN_ANOMALY": 145.513,
       "EPHEMERIS_TYPE": 0,
       "CLASSIFICATION_TYPE": "U",
       "NORAD_CAT_ID": 49158,
       "ELEMENT_SET_NO": 999,
       "REV_AT_EPOCH": 360,
       "BSTAR": -0.056643,
       "MEAN_MOTION_DOT": -0.00660028,
       "MEAN_MOTION_DDOT": 0
    },
    {
       "OBJECT_NAME": "STARLINK-3056",
       "OBJECT_ID": "2021-082AF",
       "EPOCH": "2022-03-13T22:00:01.999584",
       "MEAN_MOTION": 14.98366126,
       "ECCENTRICITY": 0.0003339,
       "INCLINATION": 70.0006,
       "RA_OF_ASC_NODE": 7.4866,
       "ARG_OF_PERICENTER": 285.976,
       "MEAN_ANOMALY": 61.6135,
       "EPHEMERIS_TYPE": 0,
       "CLASSIFICATION_TYPE": "U",
       "NORAD_CAT_ID": 49159,
       "ELEMENT_SET_NO": 999,
       "REV_AT_EPOCH": 2885,
       "BSTAR": -0.006512,
       "MEAN_MOTION_DOT": -0.0007702,
       "MEAN_MOTION_DDOT": 0
    },
    {
       "OBJECT_NAME": "STARLINK-3095",
       "OBJECT_ID": "2021-082AG",
       "EPOCH": "2022-03-13T22:00:01.999584",
       "MEAN_MOTION": 14.98347315,
       "ECCENTRICITY": 0.0003392,
       "INCLINATION": 70.0014,
       "RA_OF_ASC_NODE": 7.4914,
       "ARG_OF_PERICENTER": 287.6135,
       "MEAN_ANOMALY": 111.3512,
       "EPHEMERIS_TYPE": 0,
       "CLASSIFICATION_TYPE": "U",
       "NORAD_CAT_ID": 49160,
       "ELEMENT_SET_NO": 999,
       "REV_AT_EPOCH": 2884,
       "BSTAR": -0.0027644,
       "MEAN_MOTION_DOT": -0.00032939,
       "MEAN_MOTION_DDOT": 0
    },
    {
       "OBJECT_NAME": "STARLINK-3080",
       "OBJECT_ID": "2021-082AH",
       "EPOCH": "2022-03-13T22:00:01.999584",
       "MEAN_MOTION": 14.98364036,
       "ECCENTRICITY": 0.0003002,
       "INCLINATION": 70.0012,
       "RA_OF_ASC_NODE": 7.4909,
       "ARG_OF_PERICENTER": 278.1997,
       "MEAN_ANOMALY": 95.0943,
       "EPHEMERIS_TYPE": 0,
       "CLASSIFICATION_TYPE": "U",
       "NORAD_CAT_ID": 49161,
       "ELEMENT_SET_NO": 999,
       "REV_AT_EPOCH": 2884,
       "BSTAR": -0.0064918,
       "MEAN_MOTION_DOT": -0.00076778,
       "MEAN_MOTION_DDOT": 0
    },
    {
       "OBJECT_NAME": "STARLINK-3082",
       "OBJECT_ID": "2021-082AJ",
       "EPOCH": "2022-03-13T22:00:01.999584",
       "MEAN_MOTION": 14.98360464,
       "ECCENTRICITY": 0.0003146,
       "INCLINATION": 70.0019,
       "RA_OF_ASC_NODE": 7.4951,
       "ARG_OF_PERICENTER": 282.3312,
       "MEAN_ANOMALY": 142.4621,
       "EPHEMERIS_TYPE": 0,
       "CLASSIFICATION_TYPE": "U",
       "NORAD_CAT_ID": 49162,
       "ELEMENT_SET_NO": 999,
       "REV_AT_EPOCH": 2893,
       "BSTAR": -0.0062973,
       "MEAN_MOTION_DOT": -0.00074498,
       "MEAN_MOTION_DDOT": 0
    }
 ]